GOES 19
1 60133U 24119A   26188.62906119 -.00000233  00000+0  00000+0 0  9996
2 60133   0.0305 235.5803 0000468 309.4803 251.8029  1.00271713  7167
